P/2010 H5 (Scotti),e,14.0713,24.8110,175.3459,7.155452,0.0514930,0.15415733,191.1503,06/12.0/2020,2000,g 13.0,2.0
# From MPC 98558
P/2010 J3 (McMillan),e,13.2911,106.4040,157.5675,8.967561,0.0367022,0.72755159,131.1682,06/12.0/2020,2000,g 11.0,4.0
# From MPC 84315
P/2010 JC81 (WISE),e,38.6880,30.8376,12.4570,8.112805,0.0426528,0.77639603,142.5637,06/12.0/2020,2000,g  9.0,4.0
# From MPC 74248
P/2010 T2 (PANSTARRS),e,7.9398,59.2092,354.0020,5.500093,0.0764098,0.32169458,254.0864,06/12.0/2020,2000,g 11.5,4.0
# From MPC 98558
P/2010 TO20 (LINEAR-Grauer),e,2.4794,43.3006,266.7558,5.827700,0.0700581,0.05416368,297.5932,06/12.0/2020,2000,g  9.0,4.0
# From MPC 82316
P/2010 U1 (Boattini),e,8.2138,280.7221,85.8605,6.514111,0.0592818,0.24759418,225.0055,06/12.0/2020,2000,g  9.5,4.0
# From MPC119994
C/2010 U3 (Boattini),e,55.5159,43.0450,88.0786,2669,0.0000071,0.99683567,0.0000,02/26.1790/2019,2000,g  1.0,4.0
# From MPC 79021
P/2010 UH55 (Spacewatch),e,8.0517,233.0424,225.1865,6.649290,0.0574832,0.56371829,192.1544,06/12.0/2020,2000,g 11.0,4.0
# From MPC 75009
P/2010 WK (LINEAR),e,11.3999,11.3105,41.0097,5.759034,0.0713148,0.68961522,252.8801,06/12.0/2020,2000,g 14.5,2.0
# From MPC 82317
P/2011 A2 (Scotti),e,4.4753,54.6738,94.5502,3.104749,0.1801625,0.49938335,263.1195,06/12.0/2020,2000,g 16.5,4.0
# From MPC 84021
P/2011 C2 (Gibbs),e,10.8860,12.1205,161.0897,7.414030,0.0488228,0.26919009,150.4025,06/12.0/2020,2000,g  9.0,4.0
# From MPC 79866
P/2011 FR143 (Lemmon),e,15.9934,190.9484,350.1622,6.854809,0.0549175,0.45137595,185.9624,06/12.0/2020,2000,g 14.0,2.0
# From MPC 82317
P/2011 JB15 (Spacewatch-Boattini),e,19.1460,153.6082,110.9369,7.351658,0.0494454,0.31842306,151.3855,06/12.0/2020,2000,g  9.0,4.0
# From MPEC 2020-AA5
C/2011 KP36 (Spacewatch),e,18.9829,173.3166,180.6148,38.76916,0.0040830,0.87415846,6.0294,06/12.0/2020,2000,g  4.5,4.0
# From MPC 87913
P/2011 N1 (ASH),e,35.7056,77.6090,330.3484,6.251228,0.0630603,0.54336603,185.7912,06/12.0/2020,2000,g 11.5,4.0
# From MPC 75714
P/2011 NO1 (Elenin),e,15.2491,295.7885,263.8469,5.522183,0.0759518,0.77510379,260.2943,06/12.0/2020,2000,g 15.0,4.0
# From MPC 82318
P/2011 P1 (McNaught),e,5.6561,4.2437,348.8674,7.471094,0.0482645,0.32654562,174.6505,06/12.0/2020,2000,g  9.0,4.0
# From MPC 77806
P/2011 Q3 (McNaught),e,6.0559,32.0242,310.9604,4.970774,0.0889340,0.53239453,288.9776,06/12.0/2020,2000,g 13.5,4.0
# From MPC 90269
P/2011 R3 (Novichonok-Gerke),e,19.2445,189.7296,224.9662,4.781511,0.0942663,0.27154570,280.9465,06/12.0/2020,2000,g 11.0,4.0
# From MPC 98558
P/2011 S1 (Gibbs),e,2.6834,218.9198,192.5776,8.590616,0.0391442,0.19991548,83.4143,06/12.0/2020,2000,g  8.0,4.0
# From MPC115880
P/2011 U2 (Bressi),e,9.9637,263.5427,152.9077,4.915002,0.0904521,0.13274813,256.7493,06/12.0/2020,2000,g 10.0,4.0
# From MPC 79022
P/2011 UA134 (Spacewatch-PANSTARRS),e,10.4458,40.4404,32.4767,5.602116,0.0743320,0.62929892,232.6417,06/12.0/2020,2000,g 17.5,4.0
# From MPC 77406
P/2011 V1 (Boattini),e,7.3780,46.8594,269.2183,3.854035,0.1302659,0.55062273,80.6261,06/12.0/2020,2000,g 15.5,4.0
# From MPC 82718
P/2011 W1 (PANSTARRS),e,3.7186,161.7902,282.7276,4.659766,0.0979846,0.28689067,300.6432,06/12.0/2020,2000,g 11.5,4.0
# From MPC 79342
P/2011 Y2 (Boattini),e,6.3714,309.3690,131.9509,6.239674,0.0632355,0.70916299,190.8766,06/12.0/2020,2000,g 15.0,4.0
# From MPC 94669
P/2012 B1 (PANSTARRS),e,7.6174,36.1930,162.6014,6.526300,0.0591158,0.41015026,148.8152,06/12.0/2020,2000,g  9.0,4.0
# From MPC 78590
P/2012 C3 (PANSTARRS),e,9.0920,135.3677,344.9542,9.748681,0.0323806,0.63011148,359.9758,10/06.0/2011,2000,g 13.0,4.0
# From MPC 84931
P/2012 F2 (PANSTARRS),e,14.7307,227.0693,33.2275,6.327388,0.0619252,0.54300996,162.0322,06/12.0/2020,2000,g 12.0,4.0
# From MPC 79344
P/2012 G1 (PANSTARRS),e,11.6925,282.5440,286.1149,4.172871,0.1156250,0.38072240,359.9500,06/01.0/2012,2000,g 15.0,4.0
# From MPC 80898
P/2012 K3 (Gibbs),e,13.1946,125.8092,172.1215,3.624081,0.1428589,0.42350163,42.7915,06/12.0/2020,2000,g 15.0,4.0
# From MPC112389
C/2012 LP26 (Palomar),h,08/18.7719/2015,25.3445,153.9303,145.3384,1.003519,6.543886,2000,6.5,4.0
# From MPC 88326
P/2012 NJ (La Sagra),e,84.6452,315.5559,338.3138,8.457206,0.0400741,0.84748010,117.0683,06/12.0/2020,2000,g 14.5,4.0
# From MPC 81470
P/2012 O1 (McNaught),e,7.4334,91.9850,238.2052,3.539607,0.1480034,0.59450070,69.2101,06/12.0/2020,2000,g 17.5,4.0
# From MPC 80899
P/2012 O2 (McNaught),e,24.4864,120.6788,183.3806,3.622112,0.1429754,0.53283357,57.6052,06/12.0/2020,2000,g 17.0,4.0
# From MPC 82720
P/2012 O3 (McNaught),e,16.6124,336.4062,344.6901,4.575993,0.1006876,0.64685309,287.8282,06/12.0/2020,2000,g 16.5,4.0
# From MPC 82720
P/2012 S2 (La Sagra),e,8.6874,51.1928,312.5094,4.410035,0.1064244,0.69110477,306.0587,06/12.0/2020,2000,g 17.0,4.0
# From MPC 82720
P/2012 SB6 (Lemmon),e,10.9288,8.2099,14.3972,3.825321,0.1317353,0.40479621,359.0134,06/12.0/2020,2000,g 14.0,4.0
# From MPC 82320
P/2012 T2 (PANSTARRS),e,12.5549,73.7345,310.4381,5.739131,0.0716861,0.16044155,187.1907,06/12.0/2020,2000,g 10.0,4.0
# From MPC 80900
P/2012 T3 (PANSTARRS),e,9.5687,114.4081,195.4277,6.152918,0.0645777,0.61713042,191.4536,06/12.0/2020,2000,g 15.0,4.0
# From MPC 87914
P/2012 TK8 (Tenagra),e,6.3406,288.9706,127.8056,4.131024,0.1173863,0.27434584,301.2819,06/12.0/2020,2000,g 13.0,4.0
# From MPC 82720
P/2012 U2 (PANSTARRS),e,10.7464,185.2639,228.3527,7.144548,0.0516110,0.49750213,143.1416,06/12.0/2020,2000,g 12.5,4.0
# From MPC 84024
P/2012 US27 (Siding Spring),e,39.3238,49.1685,0.8300,5.166146,0.0839371,0.64727751,226.2079,06/12.0/2020,2000,g 13.5,4.0
# From MPC 82721
P/2012 WA34 (Lemmon-PANSTARRS),e,6.1212,94.4919,352.8887,4.769848,0.0946122,0.34120975,254.5245,06/12.0/2020,2000,g 13.5,4.0
# From MPC 84024
P/2013 A2 (Scotti),e,3.3614,355.8162,134.5559,4.012975,0.1226039,0.45433149,329.4920,06/12.0/2020,2000,g 15.5,4.0
# From MPC 82721
P/2013 AL76 (Catalina),e,144.7967,145.9437,27.1377,6.498226,0.0594993,0.68608465,162.9612,06/12.0/2020,2000,g 16.0,4.0
# From MPC115880
C/2013 C2 (Tenagra),e,21.3380,247.5296,309.5452,16.01442,0.0153793,0.42816386,26.6544,06/12.0/2020,2000,g  4.0,4.0
# From MPC 88695
P/2013 EW90 (Tenagra),e,31.7866,160.2988,346.3706,4.116298,0.1180168,0.19494120,330.6246,06/12.0/2020,2000,g 12.0,4.0
# From MPC 91612
P/2013 G1 (Kowalski),e,5.4698,221.4203,51.3394,6.885526,0.0545505,0.51340838,129.4148,06/12.0/2020,2000,g 11.0,4.0
# From MPC 84025
P/2013 G4 (PANSTARRS),e,5.9161,339.6496,214.7292,4.438749,0.1053934,0.40975612,282.2749,06/12.0/2020,2000,g 15.0,4.0
# From MPC 91613
P/2013 J2 (McNaught),e,15.5362,289.4301,37.7125,6.223702,0.0634791,0.65733991,157.5368,06/12.0/2020,2000,g 13.0,4.0
# From MPC 87066
P/2013 J4 (PANSTARRS),e,5.0352,84.0011,118.7706,2.475100,0.2531133,0.23099371,359.9443,11/04.0/2013,2000,g 14.0,4.0
# From MPC 86229
P/2013 N3 (PANSTARRS),e,2.1727,17.5120,323.8266,7.390732,0.0490538,0.59286814,113.3112,06/12.0/2020,2000,g 13.0,4.0
# From MPC 85834
P/2013 N5 (PANSTARRS),e,23.4065,187.1739,176.8798,6.800296,0.0555792,0.73152573,141.0533,06/12.0/2020,2000,g 17.0,4.0
# From MPC 87479
P/2013 O2 (PANSTARRS),e,13.3170,207.1610,214.2193,3.790787,0.1335396,0.44684363,313.9868,06/12.0/2020,2000,g 14.0,4.0
# From MPC 85834
P/2013 P1 (PANSTARRS),e,18.7176,160.6387,138.0464,8.565718,0.0393150,0.60618914,104.5583,06/12.0/2020,2000,g 12.0,4.0
# From MPC 94671
P/2013 R3 (Catalina-PANSTARRS),e,0.8653,342.0013,11.1486,3.034007,0.1865001,0.27494662,103.2094,06/12.0/2020,2000,g 14.0,4.0
# From unp
P/2013 R3-A (Catalina-PANSTARRS),e,0.8647,341.9681,11.1876,3.033866,0.1865131,0.27491597,103.2395,06/12.0/2020,2000,g  9.0,4.0
# From MPEC 2015-M77
P/2013 R3-B (Catalina-PANSTARRS),e,0.8660,342.0240,11.1225,3.034084,0.1864931,0.27496171,103.1934,06/12.0/2020,2000,g  9.0,4.0
# From MPC 85835
P/2013 T1 (PANSTARRS),e,24.2636,10.0955,346.0653,5.862583,0.0694337,0.62329716,174.1252,06/12.0/2020,2000,g 16.5,4.0
# From MPC 86643
P/2013 T2 (Schwartz),e,9.4561,0.8229,345.4569,3.488366,0.1512764,0.50108635,29.4157,06/12.0/2020,2000,g 16.0,4.0
# From MPC 88696
P/2013 TL117 (Lemmon),e,9.3649,3.3153,112.2507,3.609283,0.1437384,0.68916278,331.9436,06/12.0/2020,2000,g 17.5,4.0
# From MPC110080
C/2013 US10 (Catalina),h,11/16.6277/2015,148.7851,186.3665,340.5804,1.000622,0.822177,2000,4.4,4.0
# From MPC111767
C/2013 V4 (Catalina),e,67.8793,55.6163,40.3395,3488,0.0000048,0.99851424,0.0000,10/05.5839/2015,2000,g  6.0,4.0
# From MPC 91613
P/2013 W1 (PANSTARRS),e,4.6955,117.8480,1.3009,3.490786,0.1511191,0.59282436,346.3511,06/12.0/2020,2000,g 17.5,4.0
# From MPC111767
C/2013 X1 (PANSTARRS),h,04/19.5241/2016,163.1927,131.5784,165.1388,1.000375,1.321202,2000,10.5,2.0
# From MPC101095
P/2013 YG46 (Spacewatch),e,7.8562,48.8804,242.4669,3.276597,0.1661765,0.45491219,204.1505,06/12.0/2020,2000,g 10.0,4.0
# From MPC 89728
P/2014 A2 (Hill),e,24.5474,106.6277,356.2763,5.925540,0.0683301,0.64574631,165.9823,06/12.0/2020,2000,g 15.0,4.0
# From MPC 92981
P/2014 A3 (PANSTARRS),e,13.6807,230.2851,212.5478,4.635336,0.0987603,0.24598911,257.4065,06/12.0/2020,2000,g 12.0,4.0
# From MPC108592
C/2014 A4 (SONEAR),e,121.3781,29.6741,356.5819,2773,0.0000068,0.99849479,0.0000,09/04.0190/2015,2000,g  6.0,4.0
# From MPC119994
C/2014 B1 (Schwartz),e,28.4014,161.4070,345.8173,28567,0.0000002,0.99966550,0.0000,09/09.7180/2017,2000,g  4.0,4.0
# From MPC102095
P/2014 C1 (TOTAS),e,2.6832,167.7809,24.1257,3.042819,0.1856906,0.44716369,79.0448,06/12.0/2020,2000,g 15.5,4.0
# From MPC 91614
P/2014 E1 (Larson),e,15.9763,39.0373,186.0096,3.712430,0.1377897,0.42359684,304.4471,06/12.0/2020,2000,g 14.0,4.0
# From MPC 94280
C/2014 F3 (Sheppard-Trujillo),e,6.5467,326.8789,2.5006,16.13762,0.0152035,0.64687767,354.9688,06/12.0/2020,2000,g  6.0,4.0
# From MPC 98560
P/2014 L2 (NEOWISE),e,5.1958,149.3524,182.6298,6.303749,0.0622739,0.64793183,134.2640,06/12.0/2020,2000,g 12.0,4.0
# From MPC 90769
P/2014 L3 (Hill),e,6.2778,115.4698,178.6145,8.164481,0.0422485,0.77396845,91.7976,06/12.0/2020,2000,g 16.0,4.0
# From MPC103844
